[{"OBJECT_NAME":"FLOCK 4H-19","OBJECT_ID":"2025-276BJ","EPOCH":"2026-03-09T17:51:43.994880","MEAN_MOTION":15.19883361,"ECCENTRICITY":2.675e-5,"INCLINATION":97.425,"RA_OF_ASC_NODE":144.1303,"ARG_OF_PERICENTER":247.623,"MEAN_ANOMALY":112.4977,"EPHEMERIS_TYPE":0,"CLASSIFICATION_TYPE":"U","NORAD_CAT_ID":66722,"ELEMENT_SET_NO":999,"REV_AT_EPOCH":1462,"BSTAR":0.00035971789,"MEAN_MOTION_DOT":7.656e-5,"MEAN_MOTION_DDOT":0},{"OBJECT_NAME":"OBJECT AD","OBJECT_ID":"2025-313AD","EPOCH":"2026-03-09T22:39:46.024416","MEAN_MOTION":15.21252673,"ECCENTRICITY":0.00138238,"INCLINATION":97.3979,"RA_OF_ASC_NODE":145.1661,"ARG_OF_PERICENTER":2.1254,"MEAN_ANOMALY":358.0038,"EPHEMERIS_TYPE":0,"CLASSIFICATION_TYPE":"U","NORAD_CAT_ID":67275,"ELEMENT_SET_NO":999,"REV_AT_EPOCH":1085,"BSTAR":0.00040975515,"MEAN_MOTION_DOT":9.111e-5,"MEAN_MOTION_DDOT":0}]
